[{"OBJECT_NAME":"FENGYUN 1C DEB","OBJECT_ID":"1999-025AHH","EPOCH":"2026-03-04T02:30:53.991648","MEAN_MOTION":12.94739586,"ECCENTRICITY":0.0594032,"INCLINATION":102.2554,"RA_OF_ASC_NODE":166.6992,"ARG_OF_PERICENTER":100.5042,"MEAN_ANOMALY":266.3509,"EPHEMERIS_TYPE":0,"CLASSIFICATION_TYPE":"U","NORAD_CAT_ID":30495,"ELEMENT_SET_NO":999,"REV_AT_EPOCH":89726,"BSTAR":0.0024872,"MEAN_MOTION_DOT":1.505e-5,"MEAN_MOTION_DDOT":0},{"OBJECT_NAME":"FENGYUN 1C DEB","OBJECT_ID":"1999-025AHJ","EPOCH":"2026-03-03T17:35:17.223072","MEAN_MOTION":14.95933489,"ECCENTRICITY":0.01246235,"INCLINATION":98.7849,"RA_OF_ASC_NODE":343.2567,"ARG_OF_PERICENTER":194.1646,"MEAN_ANOMALY":165.6066,"EPHEMERIS_TYPE":0,"CLASSIFICATION_TYPE":"U","NORAD_CAT_ID":30496,"ELEMENT_SET_NO":999,"REV_AT_EPOCH":2354,"BSTAR":0.00070295388,"MEAN_MOTION_DOT":9.135e-5,"MEAN_MOTION_DDOT":0},{"OBJECT_NAME":"FENGYUN 1C DEB","OBJECT_ID":"1999-025AHL","EPOCH":"2026-03-04T03:02:31.604352","MEAN_MOTION":14.06595286,"ECCENTRICITY":0.0099614,"INCLINATION":99.2305,"RA_OF_ASC_NODE":120.8927,"ARG_OF_PERICENTER":288.9345,"MEAN_ANOMALY":99.5499,"EPHEMERIS_TYPE":0,"CLASSIFICATION_TYPE":"U","NORAD_CAT_ID":30498,"ELEMENT_SET_NO":999,"REV_AT_EPOCH":96913,"BSTAR":0.0016484,"MEAN_MOTION_DOT":2.811e-5,"MEAN_MOTION_DDOT":0},{"OBJECT_NAME":"FENGYUN 1C DEB","OBJECT_ID":"1999-025AHN","EPOCH":"2026-03-03T23:14:26.787840","MEAN_MOTION":14.26210469,"ECCENTRICITY":0.0064261,"INCLINATION":99.0666,"RA_OF_ASC_NODE":162.2556,"ARG_OF_PERICENTER":238.5586,"MEAN_ANOMALY":181.6621,"EPHEMERIS_TYPE":0,"CLASSIFICATION_TYPE":"U","NORAD_CAT_ID":30500,"ELEMENT_SET_NO":999,"REV_AT_EPOCH":97839,"BSTAR":0.0033278,"MEAN_MOTION_DOT":8.11e-5,"MEAN_MOTION_DDOT":0},{"OBJECT_NAME":"FENGYUN 1C DEB","OBJECT_ID":"1999-025AHP","EPOCH":"2026-03-02T23:59:46.849056","MEAN_MOTION":14.25990175,"ECCENTRICITY":0.00409768,"INCLINATION":99.0895,"RA_OF_ASC_NODE":60.6977,"ARG_OF_PERICENTER":333.932,"MEAN_ANOMALY":94.3591,"EPHEMERIS_TYPE":0,"CLASSIFICATION_TYPE":"U","NORAD_CAT_ID":30501,"ELEMENT_SET_NO":999,"REV_AT_EPOCH":98063,"BSTAR":0.0017285112,"MEAN_MOTION_DOT":4.115e-5,"MEAN_MOTION_DDOT":0},{"OBJECT_NAME":"FENGYUN 1C DEB","OBJECT_ID":"1999-025AHR","EPOCH":"2026-03-04T01:51:17.378208","MEAN_MOTION":14.16227152,"ECCENTRICITY":0.0009595,"INCLINATION":99.2021,"RA_OF_ASC_NODE":274.3037,"ARG_OF_PERICENTER":39.7283,"MEAN_ANOMALY":116.5776,"EPHEMERIS_TYPE":0,"CLASSIFICATION_TYPE":"U","NORAD_CAT_ID":30503,"ELEMENT_SET_NO":999,"REV_AT_EPOCH":98497,"BSTAR":0.00032239,"MEAN_MOTION_DOT":5.91e-6,"MEAN_MOTION_DDOT":0},{"OBJECT_NAME":"FENGYUN 1C DEB","OBJECT_ID":"1999-025AHS","EPOCH":"2026-03-04T02:35:46.313952","MEAN_MOTION":14.20761366,"ECCENTRICITY":0.0110962,"INCLINATION":99.0126,"RA_OF_ASC_NODE":115.941,"ARG_OF_PERICENTER":345.1551,"MEAN_ANOMALY":43.6142,"EPHEMERIS_TYPE":0,"CLASSIFICATION_TYPE":"U","NORAD_CAT_ID":30504,"ELEMENT_SET_NO":999,"REV_AT_EPOCH":98549,"BSTAR":0.00055187,"MEAN_MOTION_DOT":1.22e-5,"MEAN_MOTION_DDOT":0},{"OBJECT_NAME":"FENGYUN 1C DEB","OBJECT_ID":"1999-025AHT","EPOCH":"2026-03-04T04:03:48.874752","MEAN_MOTION":14.22661852,"ECCENTRICITY":0.006089,"INCLINATION":98.917,"RA_OF_ASC_NODE":148.8178,"ARG_OF_PERICENTER":10.2023,"MEAN_ANOMALY":19.4884,"EPHEMERIS_TYPE":0,"CLASSIFICATION_TYPE":"U","NORAD_CAT_ID":30505,"ELEMENT_SET_NO":999,"REV_AT_EPOCH":98081,"BSTAR":0.0015499,"MEAN_MOTION_DOT":3.49e-5,"MEAN_MOTION_DDOT":0},{"OBJECT_NAME":"FENGYUN 1C DEB","OBJECT_ID":"1999-025AHU","EPOCH":"2026-03-03T23:01:22.681920","MEAN_MOTION":14.08751777,"ECCENTRICITY":0.0071406,"INCLINATION":98.7589,"RA_OF_ASC_NODE":70.7091,"ARG_OF_PERICENTER":117.4733,"MEAN_ANOMALY":273.3876,"EPHEMERIS_TYPE":0,"CLASSIFICATION_TYPE":"U","NORAD_CAT_ID":30506,"ELEMENT_SET_NO":999,"REV_AT_EPOCH":97965,"BSTAR":0.00042663,"MEAN_MOTION_DOT":7.11e-6,"MEAN_MOTION_DDOT":0},{"OBJECT_NAME":"FENGYUN 1C DEB","OBJECT_ID":"1999-025AHV","EPOCH":"2026-03-04T03:54:54.915840","MEAN_MOTION":14.13524234,"ECCENTRICITY":0.0124865,"INCLINATION":99.0035,"RA_OF_ASC_NODE":133.2255,"ARG_OF_PERICENTER":305.8241,"MEAN_ANOMALY":80.3872,"EPHEMERIS_TYPE":0,"CLASSIFICATION_TYPE":"U","NORAD_CAT_ID":30507,"ELEMENT_SET_NO":999,"REV_AT_EPOCH":97648,"BSTAR":0.0010595,"MEAN_MOTION_DOT":2.103e-5,"MEAN_MOTION_DDOT":0},{"OBJECT_NAME":"FENGYUN 1C DEB","OBJECT_ID":"1999-025AHX","EPOCH":"2026-03-04T02:39:33.787008","MEAN_MOTION":14.08259766,"ECCENTRICITY":0.0099142,"INCLINATION":98.4651,"RA_OF_ASC_NODE":294.9382,"ARG_OF_PERICENTER":192.7478,"MEAN_ANOMALY":321.3373,"EPHEMERIS_TYPE":0,"CLASSIFICATION_TYPE":"U","NORAD_CAT_ID":30509,"ELEMENT_SET_NO":999,"REV_AT_EPOCH":96867,"BSTAR":0.0018375,"MEAN_MOTION_DOT":3.245e-5,"MEAN_MOTION_DDOT":0},{"OBJECT_NAME":"FENGYUN 1C DEB","OBJECT_ID":"1999-025AHY","EPOCH":"2026-03-03T23:50:37.829760","MEAN_MOTION":14.13330407,"ECCENTRICITY":0.0076628,"INCLINATION":99.2414,"RA_OF_ASC_NODE":82.6501,"ARG_OF_PERICENTER":298.5462,"MEAN_ANOMALY":90.6464,"EPHEMERIS_TYPE":0,"CLASSIFICATION_TYPE":"U","NORAD_CAT_ID":30510,"ELEMENT_SET_NO":999,"REV_AT_EPOCH":97722,"BSTAR":0.0016902,"MEAN_MOTION_DOT":3.214e-5,"MEAN_MOTION_DDOT":0},{"OBJECT_NAME":"FENGYUN 1C DEB","OBJECT_ID":"1999-025AJC","EPOCH":"2026-03-03T17:21:25.570368","MEAN_MOTION":14.34710785,"ECCENTRICITY":0.01722135,"INCLINATION":98.4064,"RA_OF_ASC_NODE":89.1448,"ARG_OF_PERICENTER":212.5515,"MEAN_ANOMALY":146.496,"EPHEMERIS_TYPE":0,"CLASSIFICATION_TYPE":"U","NORAD_CAT_ID":30514,"ELEMENT_SET_NO":999,"REV_AT_EPOCH":99386,"BSTAR":0.00052164136,"MEAN_MOTION_DOT":1.698e-5,"MEAN_MOTION_DDOT":0},{"OBJECT_NAME":"FENGYUN 1C DEB","OBJECT_ID":"1999-025AJD","EPOCH":"2026-03-04T02:14:22.899840","MEAN_MOTION":13.64161405,"ECCENTRICITY":0.0493963,"INCLINATION":98.5032,"RA_OF_ASC_NODE":294.4781,"ARG_OF_PERICENTER":219.0219,"MEAN_ANOMALY":303.3883,"EPHEMERIS_TYPE":0,"CLASSIFICATION_TYPE":"U","NORAD_CAT_ID":30515,"ELEMENT_SET_NO":999,"REV_AT_EPOCH":94439,"BSTAR":0.0011125,"MEAN_MOTION_DOT":2.005e-5,"MEAN_MOTION_DDOT":0},{"OBJECT_NAME":"FENGYUN 1C DEB","OBJECT_ID":"1999-025AJE","EPOCH":"2026-03-04T00:18:33.683040","MEAN_MOTION":14.42817801,"ECCENTRICITY":0.0008111,"INCLINATION":98.8539,"RA_OF_ASC_NODE":175.0598,"ARG_OF_PERICENTER":79.6682,"MEAN_ANOMALY":335.5769,"EPHEMERIS_TYPE":0,"CLASSIFICATION_TYPE":"U","NORAD_CAT_ID":30516,"ELEMENT_SET_NO":999,"REV_AT_EPOCH":98886,"BSTAR":0.003273,"MEAN_MOTION_DOT":0.00010892,"MEAN_MOTION_DDOT":0},{"OBJECT_NAME":"FENGYUN 1C DEB","OBJECT_ID":"1999-025AJJ","EPOCH":"2026-03-03T23:30:29.560320","MEAN_MOTION":15.1825392,"ECCENTRICITY":0.0064396,"INCLINATION":98.7212,"RA_OF_ASC_NODE":252.8097,"ARG_OF_PERICENTER":187.9539,"MEAN_ANOMALY":172.0676,"EPHEMERIS_TYPE":0,"CLASSIFICATION_TYPE":"U","NORAD_CAT_ID":30520,"ELEMENT_SET_NO":999,"REV_AT_EPOCH":2272,"BSTAR":0.0017949,"MEAN_MOTION_DOT":0.000389,"MEAN_MOTION_DDOT":0}]
