FENGYUN 1C DEB          
1 30495U 99025AHH 26063.10479157  .00001505  00000+0  24872-2 0  9992
2 30495 102.2554 166.6992 0594032 100.5042 266.3509 12.94739586897263
FENGYUN 1C DEB          
1 30496U 99025AHJ 26062.73283823  .00009135  00000+0  70295-3 0  9992
2 30496  98.7849 343.2567 0124623 194.1646 165.6066 14.95933489 23547
FENGYUN 1C DEB          
1 30498U 99025AHL 26063.12675468  .00002811  00000+0  16484-2 0  9991
2 30498  99.2305 120.8927 0099614 288.9345  99.5499 14.06595286969130
FENGYUN 1C DEB          
1 30500U 99025AHN 26062.96836560  .00008110  00000+0  33278-2 0  9996
2 30500  99.0666 162.2556 0064261 238.5586 181.6621 14.26210469978395
FENGYUN 1C DEB          
1 30501U 99025AHP 26061.99984779  .00004115  00000+0  17285-2 0  9996
2 30501  99.0895  60.6977 0040976 333.9320  94.3591 14.25990175980635
FENGYUN 1C DEB          
1 30503U 99025AHR 26063.07728447  .00000591  00000+0  32239-3 0  9998
2 30503  99.2021 274.3037 0009595  39.7283 116.5776 14.16227152984973
FENGYUN 1C DEB          
1 30504U 99025AHS 26063.10817493  .00001220  00000+0  55187-3 0  9990
2 30504  99.0126 115.9410 0110962 345.1551  43.6142 14.20761366985496
FENGYUN 1C DEB          
1 30505U 99025AHT 26063.16931568  .00003490  00000+0  15499-2 0  9999
2 30505  98.9170 148.8178 0060890  10.2023  19.4884 14.22661852980814
FENGYUN 1C DEB          
1 30506U 99025AHU 26062.95929030  .00000711  00000+0  42663-3 0  9994
2 30506  98.7589  70.7091 0071406 117.4733 273.3876 14.08751777979659
FENGYUN 1C DEB          
1 30507U 99025AHV 26063.16313560  .00002103  00000+0  10595-2 0  9999
2 30507  99.0035 133.2255 0124865 305.8241  80.3872 14.13524234976484
FENGYUN 1C DEB          
1 30509U 99025AHX 26063.11080772  .00003245  00000+0  18375-2 0  9994
2 30509  98.4651 294.9382 0099142 192.7478 321.3373 14.08259766968678
FENGYUN 1C DEB          
1 30510U 99025AHY 26062.99349340  .00003214  00000+0  16902-2 0  9990
2 30510  99.2414  82.6501 0076628 298.5462  90.6464 14.13330407977229
FENGYUN 1C DEB          
1 30514U 99025AJC 26062.72321262  .00001698  00000+0  52164-3 0  9993
2 30514  98.4064  89.1448 0172213 212.5515 146.4960 14.34710785993862
FENGYUN 1C DEB          
1 30515U 99025AJD 26063.09332060  .00002005  00000+0  11125-2 0  9997
2 30515  98.5032 294.4781 0493963 219.0219 303.3883 13.64161405944394
FENGYUN 1C DEB          
1 30516U 99025AJE 26063.01288985  .00010892  00000+0  32730-2 0  9994
2 30516  98.8539 175.0598 0008111  79.6682 335.5769 14.42817801988866
FENGYUN 1C DEB          
1 30520U 99025AJJ 26062.97950880  .00038900  00000+0  17949-2 0  9998
2 30520  98.7212 252.8097 0064396 187.9539 172.0676 15.18253920 22722
